OBJECT_NAME,OBJECT_ID,EPOCH,MEAN_MOTION,ECCENTRICITY,INCLINATION,RA_OF_ASC_NODE,ARG_OF_PERICENTER,MEAN_ANOMALY,EPHEMERIS_TYPE,CLASSIFICATION_TYPE,NORAD_CAT_ID,ELEMENT_SET_NO,REV_AT_EPOCH,BSTAR,MEAN_MOTION_DOT,MEAN_MOTION_DDOT
FLOCK 4BE-20,2024-149X,2026-07-23T16:01:51.986784,15.38972766,.0005483,97.3680,286.8738,129.9801,230.1926,0,U,60489,999,10782,.2926E-3,.11214E-3,0
FLOCK 4BE-23,2024-149Y,2026-07-23T05:06:44.807040,15.38527060,.0005117,97.3764,286.8110,135.0634,225.1027,0,U,60490,999,10773,.37875E-3,.14334E-3,0
FLOCK 4BE-15,2024-149Z,2026-07-23T16:55:23.075616,15.66642114,.0004245,97.3653,291.6288,177.0891,183.0395,0,U,60491,999,10813,.12412E-2,.131688E-2,0
FLOCK 4BE-17,2024-149AA,2026-07-23T15:59:02.999616,15.40780910,.000473,97.3761,288.3466,125.5199,234.6489,0,U,60492,999,10787,.4192E-3,.17098E-3,0
NUSAT-50 (NANCY ROMAN),2024-149AB,2026-07-23T11:06:09.561024,15.30426807,.0004769,97.3775,285.4776,82.3777,277.8006,0,U,60493,999,10767,.30685E-3,.8957E-4,0
FLOCK 4BE-22,2024-149AC,2026-07-23T11:37:30.198720,15.42293661,.0005013,97.3725,288.4144,133.7241,226.4422,0,U,60494,999,10789,.40405E-3,.17329E-3,0
FLOCK 4BE-34,2024-149AD,2026-07-23T12:03:26.878752,15.42148638,.0005386,97.3766,289.2766,138.8881,221.2773,0,U,60495,999,10792,.39616E-3,.16907E-3,0
TYCHE,2024-149AE,2026-07-23T20:37:39.701856,15.25796277,.0003614,97.3741,282.1793,145.7550,214.3922,0,U,60496,999,10749,.1688E-3,.4242E-4,0
FLOCK 4BE-32,2024-149AF,2026-07-23T16:54:53.708256,15.43320958,.0005349,97.3709,289.0550,135.5347,224.6331,0,U,60497,999,10796,.40994E-3,.18202E-3,0
NUSAT-48 (HENRIETTA LEAVITT),2024-149AG,2026-07-23T06:09:02.536704,15.29990066,.0004865,97.3908,285.5766,130.5360,229.6305,0,U,60498,999,10765,.33988E-3,.9797E-4,0
FLOCK 4BE-30,2024-149AH,2026-07-23T12:28:36.539040,15.67861459,.0006142,97.3730,291.5479,201.7995,158.3006,0,U,60499,999,10744,.24933E-2,.283187E-2,0
NUSAT-49 (KLARA DAN VON NEUMANN),2024-149AJ,2026-07-23T04:03:54.538272,15.29873402,.0002896,97.3780,285.2115,148.3571,211.7845,0,U,60500,999,10763,.96043E-4,.2702E-4,0
FLOCK 4BE-11,2024-149AK,2026-07-23T05:26:37.089024,15.44098653,.0005374,97.3687,288.8351,136.9580,223.2090,0,U,60501,999,10791,.4316E-3,.19682E-3,0
YAM-7,2024-149AN,2026-07-23T04:13:26.535648,15.32262504,.00044375,97.3770,284.2880,145.9611,214.1916,0,U,60504,999,10756,.23363882E-3,.7202E-4,0
FLOCK 4BE-24,2024-149AP,2026-07-23T11:14:35.515968,15.44360001,.0005584,97.3698,289.3533,146.1141,214.0465,0,U,60505,999,10796,.47285E-3,.21769E-3,0
LUR-1,2024-149AQ,2026-07-23T15:56:57.359328,15.30530874,.0004785,97.3724,283.2361,155.8688,204.2778,0,U,60506,999,10755,.23289E-3,.68E-4,0
TANAGER-1,2024-149AR,2026-07-22T12:54:14.484960,15.43942180,.00036004,97.2319,297.6298,123.9157,236.2434,0,U,60507,999,10849,.7611011E-5,.262E-5,0
EAGLEEYE,2024-149AS,2026-07-23T04:52:50.511360,15.78556291,.00041585,97.3702,299.7300,173.5924,186.5397,0,U,60508,999,10860,.88154601E-3,.155157E-2,0
FLOCK 4BE-29,2024-149AT,2026-07-23T17:02:46.716288,15.46067747,.0004104,97.3796,291.1722,156.1376,204.0064,0,U,60509,999,10805,.10313E-2,.50605E-3,0
FLOCK 4BE-2,2024-149AV,2026-07-23T11:42:11.337408,15.56787431,.0005191,97.3821,292.9273,151.7186,208.4352,0,U,60511,999,10814,.10389E-2,.74897E-3,0
FLOCK 4BE-13,2024-149AW,2026-07-23T05:28:34.696704,15.42784687,.0005498,97.3709,289.0355,132.7555,227.4156,0,U,60512,999,10792,.33975E-3,.14795E-3,0
FLOCK 4BE-27,2024-149AX,2026-07-23T04:25:43.949280,15.35024754,.0004716,97.3815,286.0653,157.3005,202.8447,0,U,60513,999,10766,.29375E-3,.9907E-4,0
FLOCK 4BE-9,2024-149AY,2026-07-23T16:56:25.545408,15.41836451,.0004245,97.3781,289.3561,148.9419,211.2080,0,U,60514,999,10794,.39839E-3,.16823E-3,0
FLOCK 4BE-6,2024-149BA,2026-07-23T16:47:27.466080,15.40506954,.0004863,97.3776,288.6374,148.8038,211.3497,0,U,60516,999,10789,.37287E-3,.15058E-3,0
FLOCK 4BE-14,2024-149BB,2026-07-23T04:39:01.677024,15.42062963,.0005896,97.3682,288.2986,152.5483,207.6076,0,U,60517,999,10787,.45531E-3,.19396E-3,0
FLOCK 4BE-1,2024-149BC,2026-07-23T04:07:00.486624,15.43728639,.0005569,97.3765,289.6846,152.3818,207.7726,0,U,60518,999,10792,.45281E-3,.20399E-3,0
FLOCK 4BE-28,2024-149BD,2026-07-23T17:01:06.988224,15.46882231,.0005566,97.3736,291.0795,151.2578,208.8980,0,U,60519,999,10808,.98784E-3,.49849E-3,0
IPERDRONE.0,2024-149BE,2026-07-23T17:04:56.414784,15.72394319,.0003428,97.3754,299.8804,147.9673,212.1799,0,U,60520,999,10864,.76303E-3,.102124E-2,0
CONNECTA IOT-2,2024-149BG,2026-07-23T16:24:21.903840,15.24246151,.0006449,97.3826,282.2800,180.9683,179.1543,0,U,60522,999,10745,.17695E-3,.4248E-4,0
