{"epoch":1784848540,"count":18314,"objects":[{"id":"60489","name":"FLOCK 4BE 20","type":"PAYLOAD","l1":"1 60489U 24149X   26204.66796281  .00011214  00000-0  29260-3 0  9997","l2":"2 60489  97.3680 286.8738 0005483 129.9801 230.1926 15.38972766107829"},{"id":"60490","name":"FLOCK 4BE 23","type":"PAYLOAD","l1":"1 60490U 24149Y   26204.21301860  .00014334  00000-0  37875-3 0  9992","l2":"2 60490  97.3764 286.8110 0005117 135.0634 225.1027 15.38527060107733"},{"id":"60491","name":"FLOCK 4BE 15","type":"PAYLOAD","l1":"1 60491U 24149Z   26204.70512819  .00131688  00000-0  12412-2 0  9996","l2":"2 60491  97.3653 291.6288 0004245 177.0891 183.0395 15.66642114108137"},{"id":"60492","name":"FLOCK 4BE 17","type":"PAYLOAD","l1":"1 60492U 24149AA  26204.66600694  .00017098  00000-0  41920-3 0  9996","l2":"2 60492  97.3761 288.3466 0004730 125.5199 234.6489 15.40780910107873"},{"id":"60493","name":"NUSAT-50 (NANCY ROMAN)","type":"PAYLOAD","l1":"1 60493U 24149AB  26204.46261066  .00008957  00000-0  30685-3 0  9991","l2":"2 60493  97.3775 285.4776 0004769  82.3777 277.8006 15.30426807107678"},{"id":"60494","name":"FLOCK 4BE 22","type":"PAYLOAD","l1":"1 60494U 24149AC  26204.48437730  .00017329  00000-0  40405-3 0  9991","l2":"2 60494  97.3725 288.4144 0005013 133.7241 226.4422 15.42293661107895"},{"id":"60495","name":"FLOCK 4BE 34","type":"PAYLOAD","l1":"1 60495U 24149AD  26204.50239443  .00016907  00000-0  39616-3 0  9999","l2":"2 60495  97.3766 289.2766 0005386 138.8881 221.2773 15.42148638107928"},{"id":"60496","name":"TYCHE","type":"PAYLOAD","l1":"1 60496U 24149AE  26204.85948729  .00004242  00000-0  16880-3 0  9999","l2":"2 60496  97.3741 282.1793 0003614 145.7550 214.3922 15.25796277107496"},{"id":"60497","name":"FLOCK 4BE 32","type":"PAYLOAD","l1":"1 60497U 24149AF  26204.70478829  .00018202  00000-0  40994-3 0  9997","l2":"2 60497  97.3709 289.0550 0005349 135.5347 224.6331 15.43320958107965"},{"id":"60498","name":"NUSAT-48 (H. LEAVITT)","type":"PAYLOAD","l1":"1 60498U 24149AG  26204.25627936  .00009797  00000-0  33988-3 0  9997","l2":"2 60498  97.3908 285.5766 0004865 130.5360 229.6305 15.29990066107658"},{"id":"60499","name":"FLOCK 4BE 30","type":"PAYLOAD","l1":"1 60499U 24149AH  26204.51986735  .00283187  00000-0  24933-2 0  9998","l2":"2 60499  97.3730 291.5479 0006142 201.7995 158.3006 15.67861459107443"},{"id":"60500","name":"NUSAT-49(K.VON NEUMANN)","type":"PAYLOAD","l1":"1 60500U 24149AJ  26204.16938123  .00002702  00000-0  96043-4 0  9995","l2":"2 60500  97.3780 285.2115 0002896 148.3571 211.7845 15.29873402107631"},{"id":"60501","name":"FLOCK 4BE 11","type":"PAYLOAD","l1":"1 60501U 24149AK  26204.22681816  .00019682  00000-0  43160-3 0  9993","l2":"2 60501  97.3687 288.8351 0005374 136.9580 223.2090 15.44098653107911"},{"id":"60504","name":"YAM-7","type":"PAYLOAD","l1":"1 60504U 24149AN  26204.17600157  .00007202  00000-0  23364-3 0  9998","l2":"2 60504  97.3770 284.2880 0004437 145.9611 214.1916 15.32262504107560"},{"id":"60505","name":"FLOCK 4BE 24","type":"PAYLOAD","l1":"1 60505U 24149AP  26204.46846662  .00021769  00000-0  47285-3 0  9996","l2":"2 60505  97.3698 289.3533 0005584 146.1141 214.0465 15.44360001107962"},{"id":"60506","name":"LUR-1","type":"PAYLOAD","l1":"1 60506U 24149AQ  26204.66455277  .00006800  00000-0  23289-3 0  9994","l2":"2 60506  97.3724 283.2361 0004785 155.8688 204.2778 15.30530874107555"},{"id":"60507","name":"TANAGER-1 4001","type":"PAYLOAD","l1":"1 60507U 24149AR  26203.53766765  .00000262  00000-0  76110-5 0  9996","l2":"2 60507  97.2319 297.6298 0003600 123.9157 236.2434 15.43942180108494"},{"id":"60508","name":"EAGLEEYE","type":"PAYLOAD","l1":"1 60508U 24149AS  26204.20336240  .00155157  00000-0  88155-3 0  9997","l2":"2 60508  97.3702 299.7300 0004158 173.5924 186.5397 15.78556291108601"},{"id":"60509","name":"FLOCK 4BE 29","type":"PAYLOAD","l1":"1 60509U 24149AT  26204.71026292  .00050605  00000-0  10313-2 0  9999","l2":"2 60509  97.3796 291.1722 0004104 156.1376 204.0064 15.46067747108052"},{"id":"60511","name":"FLOCK 4BE 2","type":"PAYLOAD","l1":"1 60511U 24149AV  26204.48763122  .00074897  00000-0  10389-2 0  9998","l2":"2 60511  97.3821 292.9273 0005191 151.7186 208.4352 15.56787431108149"},{"id":"60512","name":"FLOCK 4BE 13","type":"PAYLOAD","l1":"1 60512U 24149AW  26204.22817936  .00014795  00000-0  33975-3 0  9992","l2":"2 60512  97.3709 289.0355 0005498 132.7555 227.4156 15.42784687107925"},{"id":"60513","name":"FLOCK 4BE 27","type":"PAYLOAD","l1":"1 60513U 24149AX  26204.18453645  .00009907  00000-0  29375-3 0  9999","l2":"2 60513  97.3815 286.0653 0004716 157.3005 202.8447 15.35024754107662"},{"id":"60514","name":"FLOCK 4BE 9","type":"PAYLOAD","l1":"1 60514U 24149AY  26204.70585122  .00016823  00000-0  39839-3 0  9995","l2":"2 60514  97.3781 289.3561 0004245 148.9419 211.2080 15.41836451107941"},{"id":"60516","name":"FLOCK 4BE 6","type":"PAYLOAD","l1":"1 60516U 24149BA  26204.69962345  .00015058  00000-0  37287-3 0  9995","l2":"2 60516  97.3776 288.6374 0004863 148.8038 211.3497 15.40506954107891"},{"id":"60517","name":"FLOCK 4BE 14","type":"PAYLOAD","l1":"1 60517U 24149BB  26204.19376941  .00019396  00000-0  45531-3 0  9992","l2":"2 60517  97.3682 288.2986 0005896 152.5483 207.6076 15.42062963107874"},{"id":"60518","name":"FLOCK 4BE 1","type":"PAYLOAD","l1":"1 60518U 24149BC  26204.17153341  .00020399  00000-0  45281-3 0  9995","l2":"2 60518  97.3765 289.6846 0005569 152.3818 207.7726 15.43728639107923"},{"id":"60519","name":"FLOCK 4BE 28","type":"PAYLOAD","l1":"1 60519U 24149BD  26204.70910866  .00049849  00000-0  98784-3 0  9995","l2":"2 60519  97.3736 291.0795 0005566 151.2578 208.8980 15.46882231108084"},{"id":"60520","name":"IPERDRONE.0","type":"PAYLOAD","l1":"1 60520U 24149BE  26204.71176406  .00102124  00000-0  76303-3 0  9991","l2":"2 60520  97.3754 299.8804 0003428 147.9673 212.1799 15.72394319108648"},{"id":"60522","name":"CONNECTA IOT-2","type":"PAYLOAD","l1":"1 60522U 24149BG  26204.68358685  .00004248  00000-0  17695-3 0  9997","l2":"2 60522  97.3826 282.2800 0006449 180.9683 179.1543 15.24246151107450"}]}